[{"OBJECT_NAME":"COSMOS 2529 (757)","OBJECT_ID":"2018-086A","EPOCH":"2026-03-14T20:38:27.895776","MEAN_MOTION":2.13102093,"ECCENTRICITY":0.00083602,"INCLINATION":64.295,"RA_OF_ASC_NODE":195.7765,"ARG_OF_PERICENTER":253.0961,"MEAN_ANOMALY":106.7938,"EPHEMERIS_TYPE":0,"CLASSIFICATION_TYPE":"U","NORAD_CAT_ID":43687,"ELEMENT_SET_NO":999,"REV_AT_EPOCH":5727,"BSTAR":0,"MEAN_MOTION_DOT":2.0e-8,"MEAN_MOTION_DDOT":0},{"OBJECT_NAME":"COSMOS 2534 (758)","OBJECT_ID":"2019-030A","EPOCH":"2026-03-14T07:36:08.100288","MEAN_MOTION":2.13102462,"ECCENTRICITY":0.00099565,"INCLINATION":64.3686,"RA_OF_ASC_NODE":195.8081,"ARG_OF_PERICENTER":279.3052,"MEAN_ANOMALY":158.2774,"EPHEMERIS_TYPE":0,"CLASSIFICATION_TYPE":"U","NORAD_CAT_ID":44299,"ELEMENT_SET_NO":999,"REV_AT_EPOCH":5290,"BSTAR":0,"MEAN_MOTION_DOT":2.0e-8,"MEAN_MOTION_DDOT":0},{"OBJECT_NAME":"COSMOS 2544 (759)","OBJECT_ID":"2019-088A","EPOCH":"2026-03-15T04:14:55.544064","MEAN_MOTION":2.13102149,"ECCENTRICITY":0.00158372,"INCLINATION":65.5123,"RA_OF_ASC_NODE":76.8668,"ARG_OF_PERICENTER":260.0868,"MEAN_ANOMALY":99.774,"EPHEMERIS_TYPE":0,"CLASSIFICATION_TYPE":"U","NORAD_CAT_ID":44850,"ELEMENT_SET_NO":999,"REV_AT_EPOCH":4871,"BSTAR":0,"MEAN_MOTION_DOT":6.2e-7,"MEAN_MOTION_DDOT":0},{"OBJECT_NAME":"COSMOS 2545 (760)","OBJECT_ID":"2020-018A","EPOCH":"2026-03-14T21:40:46.360704","MEAN_MOTION":2.13102754,"ECCENTRICITY":0.0007923,"INCLINATION":64.4114,"RA_OF_ASC_NODE":315.7347,"ARG_OF_PERICENTER":249.4705,"MEAN_ANOMALY":110.5087,"EPHEMERIS_TYPE":0,"CLASSIFICATION_TYPE":"U","NORAD_CAT_ID":45358,"ELEMENT_SET_NO":999,"REV_AT_EPOCH":4665,"BSTAR":0,"MEAN_MOTION_DOT":-1.7e-7,"MEAN_MOTION_DDOT":0},{"OBJECT_NAME":"COSMOS 2547 (705K)","OBJECT_ID":"2020-075A","EPOCH":"2026-03-12T06:37:56.595072","MEAN_MOTION":2.13100396,"ECCENTRICITY":0.00070074,"INCLINATION":64.5993,"RA_OF_ASC_NODE":195.7069,"ARG_OF_PERICENTER":230.8854,"MEAN_ANOMALY":129.0383,"EPHEMERIS_TYPE":0,"CLASSIFICATION_TYPE":"U","NORAD_CAT_ID":46805,"ELEMENT_SET_NO":999,"REV_AT_EPOCH":4184,"BSTAR":0,"MEAN_MOTION_DOT":1.1e-7,"MEAN_MOTION_DDOT":0},{"OBJECT_NAME":"COSMOS 2557 (706K)","OBJECT_ID":"2022-075A","EPOCH":"2026-03-13T20:22:48.025344","MEAN_MOTION":2.13102035,"ECCENTRICITY":0.00113868,"INCLINATION":64.3539,"RA_OF_ASC_NODE":317.846,"ARG_OF_PERICENTER":283.8913,"MEAN_ANOMALY":76.0424,"EPHEMERIS_TYPE":0,"CLASSIFICATION_TYPE":"U","NORAD_CAT_ID":52984,"ELEMENT_SET_NO":999,"REV_AT_EPOCH":2868,"BSTAR":0,"MEAN_MOTION_DOT":-2.9e-7,"MEAN_MOTION_DDOT":0},{"OBJECT_NAME":"COSMOS 2559 (707K)","OBJECT_ID":"2022-130A","EPOCH":"2026-03-15T01:49:57.814176","MEAN_MOTION":2.13101353,"ECCENTRICITY":0.00106673,"INCLINATION":64.3253,"RA_OF_ASC_NODE":317.8892,"ARG_OF_PERICENTER":179.9327,"MEAN_ANOMALY":180.1308,"EPHEMERIS_TYPE":0,"CLASSIFICATION_TYPE":"U","NORAD_CAT_ID":54031,"ELEMENT_SET_NO":999,"REV_AT_EPOCH":2668,"BSTAR":0,"MEAN_MOTION_DOT":-2.1e-7,"MEAN_MOTION_DDOT":0},{"OBJECT_NAME":"COSMOS 2564 (761)","OBJECT_ID":"2022-161A","EPOCH":"2026-03-13T12:17:21.575328","MEAN_MOTION":2.13101956,"ECCENTRICITY":0.00096749,"INCLINATION":64.7411,"RA_OF_ASC_NODE":195.8848,"ARG_OF_PERICENTER":211.591,"MEAN_ANOMALY":148.3349,"EPHEMERIS_TYPE":0,"CLASSIFICATION_TYPE":"U","NORAD_CAT_ID":54377,"ELEMENT_SET_NO":999,"REV_AT_EPOCH":2559,"BSTAR":0,"MEAN_MOTION_DOT":5.0e-8,"MEAN_MOTION_DDOT":0},{"OBJECT_NAME":"COSMOS 2569 (703K)","OBJECT_ID":"2023-114A","EPOCH":"2026-03-13T23:51:38.664000","MEAN_MOTION":2.13103986,"ECCENTRICITY":0.00129471,"INCLINATION":65.248,"RA_OF_ASC_NODE":75.8292,"ARG_OF_PERICENTER":292.2655,"MEAN_ANOMALY":67.635,"EPHEMERIS_TYPE":0,"CLASSIFICATION_TYPE":"U","NORAD_CAT_ID":57517,"ELEMENT_SET_NO":999,"REV_AT_EPOCH":2023,"BSTAR":0,"MEAN_MOTION_DOT":5.5e-7,"MEAN_MOTION_DDOT":0},{"OBJECT_NAME":"COSMOS 2584 (704K)","OBJECT_ID":"2025-042A","EPOCH":"2026-03-09T15:47:08.930400","MEAN_MOTION":2.13103483,"ECCENTRICITY":0.000776,"INCLINATION":65.0271,"RA_OF_ASC_NODE":76.1843,"ARG_OF_PERICENTER":237.191,"MEAN_ANOMALY":122.7645,"EPHEMERIS_TYPE":0,"CLASSIFICATION_TYPE":"U","NORAD_CAT_ID":63130,"ELEMENT_SET_NO":999,"REV_AT_EPOCH":792,"BSTAR":0,"MEAN_MOTION_DOT":1.3e-7,"MEAN_MOTION_DDOT":0},{"OBJECT_NAME":"COSMOS 2596 (708K)","OBJECT_ID":"2025-206B","EPOCH":"2026-03-15T07:26:02.620320","MEAN_MOTION":2.1310041,"ECCENTRICITY":0.00127085,"INCLINATION":64.6879,"RA_OF_ASC_NODE":318.2563,"ARG_OF_PERICENTER":316.5107,"MEAN_ANOMALY":176.9222,"EPHEMERIS_TYPE":0,"CLASSIFICATION_TYPE":"U","NORAD_CAT_ID":65590,"ELEMENT_SET_NO":999,"REV_AT_EPOCH":391,"BSTAR":0,"MEAN_MOTION_DOT":-2.0e-7,"MEAN_MOTION_DDOT":0}]
